GOES-16
1 41866U 16071A   26031.19967126 -.00000098  00000-0  00000+0 0  9990
2 41866   0.1422  94.6614 0003203 192.6054 170.3149  1.00271096 33738
FENGYUN-4A
1 41882U 16077A   26031.01721277 -.00000365  00000-0  00000+0 0  9997
2 41882   1.9719  81.8525 0006545 133.6998  44.4273  1.00279125 33557
FOX-1B (AO-91)
1 43017U 17073E   26031.09924785  .00008836  00000-0  40403-3 0  9998
2 43017  97.4919 261.1993 0159641  81.0580 280.8682 15.10027159444686
CANX-2
1 32790U 08021H   26030.93201382  .00005104  00000-0  36987-3 0  9997
2 32790  97.8500   8.2774 0011781 139.6936 220.5165 15.04362790964169
AIST-2 (RS-43)
1 39133U 13015D   26031.17428402  .00007775  00000-0  32019-3 0  9993
2 39133  64.8713 344.7797 0026365 251.3553 108.4714 15.24472308703008
NANOSATC-BR1
1 40024U 14033Q   26030.98467017  .00016511  00000-0  63259-3 0  9996
2 40024  98.0869  51.6123 0002500 326.2440  33.8637 15.26617472633012
QB50P1
1 40025U 14033R   26030.95749939  .00010936  00000-0  57820-3 0  9992
2 40025  98.0982  32.7250 0008618 347.7048  12.3971 15.15641436632228
QB50P2
1 40032U 14033Y   26030.90711469  .00010025  00000-0  57313-3 0  9998
2 40032  98.0680  19.5183 0005864 288.6446  71.4147 15.12891370631898
PERSEUS-M2
1 40037U 14033AD  26031.14725078  .00003625  00000-0  33679-3 0  9998
2 40037  97.9817 339.0840 0013221  40.3974 319.8226 14.94969403630302
PERSEUS-M1
1 40039U 14033AF  26030.79489998  .00003132  00000-0  29123-3 0  9990
2 40039  97.9516 332.8463 0012883  40.0943 320.1225 14.95043683630104
POLYITAN-1
1 40042U 14033AJ  26030.97128569  .00018744  00000-0  69034-3 0  9998
2 40042  98.1062  44.7270 0005864 268.3229  91.7336 15.27883877632609
TIGRISAT
1 40043U 14033AK  26030.84645651  .00004038  00000-0  47500-3 0  9996
2 40043  97.7598 184.2263 0050264 163.9848 196.2970 14.84484071625244
UKUBE-1
1 40074U 14037F   26030.94562372  .00009561  00000-0  57775-3 0  9994
2 40074  98.4181  20.1092 0000576  87.9678 272.1615 15.10927982627817
DEORBITSAIL
1 40719U 15032E   26031.06024639  .00008988  00000-0  69748-3 0  9994
2 40719  97.6093 250.5548 0011515 348.0295  12.0654 15.01537274570656
HORYU-IV
1 41340U 16012D   26031.15794705  .00066435  00000-0  88670-3 0  9998
2 41340  30.9936 329.2480 0003173 356.7018   3.3612 15.56747712549240
D-SAT
1 42794U 17036AF  26030.87764393  .00011128  00000-0  55183-3 0  9999
2 42794  97.5419  10.4877 0083214 277.5033  81.6751 15.14850857470053
CORVUS-BC2
1 42846U 17042X   26030.90661900  .00004315  00000-0  30590-3 0  9993
2 42846  97.3883 197.8118 0012409 216.5698 143.4683 15.05222592466404
CORVUS-BC1
1 42847U 17042Y   26030.98554727  .00004157  00000-0  29282-3 0  9990
2 42847  97.3918 198.6040 0011730 190.4708 169.6277 15.05487924466440
APRIZESAT-5 
1 37792U 11044E   26030.78019805  .00001579  00000-0  20750-3 0  9996
2 37792  98.2387 320.0274 0053985  85.2737 275.4637 14.80728469778451
APRIZESAT-6
1 37793U 11044F   26031.16681586  .00001040  00000-0  15436-3 0  9999
2 37793  98.2448 298.8362 0043592 162.6135   2.3752 14.76669194776924
APRIZESAT-7
1 39416U 13066A   26030.81310377  .00002774  00000-0  28222-3 0  9999
2 39416  97.7534 346.1900 0034845 308.4834  51.3260 14.91132036660758
APRIZESAT-8
1 39425U 13066K   26031.11546279  .00001709  00000-0  19197-3 0  9993
2 39425  97.8063 340.6616 0046784  18.8718 341.4219 14.87286746659294
BUGSAT-1 (TITA)
1 40014U 14033E   26031.17028475  .00008748  00000-0  48122-3 0  9993
2 40014  98.0497 115.8643 0028019 289.1913  70.6285 15.13995328635096
SAUDISAT-4
1 40016U 14033G   26030.95572199  .00001315  00000-0  18051-3 0  9998
2 40016  97.7345 182.0279 0045491 158.5093 201.8042 14.79301247625784
TABLETSAT-AURORA
1 40017U 14033H   26031.19243273  .00009011  00000-0  47859-3 0  9993
2 40017  98.0418  97.3005 0011354 327.9641  32.0899 15.15516433634440
APRIZESAT-9
1 40018U 14033J   26030.95762913  .00001001  00000-0  15521-3 0  9996
2 40018  97.8827 167.7103 0065135 281.7954  77.5954 14.73983545623341
APRIZESAT-10
1 40019U 14033K   26030.90767603  .00000683  00000-0  11512-3 0  9994
2 40019  97.9436 161.1216 0078872 353.1713   6.8412 14.70687564622073
AISAT
1 40054U 14034B   26031.15181052  .00012165  00000-0  84500-3 0  9995
2 40054  98.2488 293.8370 0009339 331.9321  28.1400 15.05679030626568
COSMOS-2407 [+]
1 28380U 04028A   26030.97001870  .00000077  00000-0  63281-4 0  9996
2 28380  82.9624 176.4426 0037980 276.2508 207.8531 13.76320331 81005
COSMOS-2414 [+]
1 28521U 05002A   26030.84211027  .00000072  00000-0  47396-4 0  9993
2 28521  82.9525 147.5356 0040007   3.0003 357.1392 13.87909794 64769
COSMOS-2463 [+]
1 36519U 10017A   26030.98069862  .00000058  00000-0  46528-4 0  9994
2 36519  82.9633 350.5263 0036765 148.8818 276.0764 13.71654115789129
NOAA-15
1 25338U 98030A   26031.11872424  .00000207  00000-0  10246-3 0  9997
2 25338  98.5190  55.3779 0010827  34.8995 325.2894 14.27096234441748
NOAA-18
1 28654U 05018A   26031.17228892  .00000083  00000-0  67160-4 0  9995
2 28654  98.8222 112.7928 0014418 176.4763 183.6514 14.13702352 66952
NOAA-19
1 33591U 09005A   26031.14691688  .00000068  00000-0  60065-4 0  9995
2 33591  98.9685 101.8405 0014534  60.7855 299.4769 14.13449043875127
SARAL
1 39086U 13009A   26031.17075954  .00000145  00000-0  69435-4 0  9990
2 39086  98.5524 219.4600 0001679   7.9174 352.2036 14.32778921675984
LAPAN-A3
1 41603U 16040E   26031.21176576  .00004230  00000-0  13891-3 0  9996
2 41603  97.1448  31.9908 0011766 138.6201 221.5935 15.32034943533834
METOP-A
1 29499U 06044A   26031.15874925  .00003386  00000-0  39464-3 0  9999
2 29499  98.3266 133.7077 0176273 145.9415 279.0731 14.75374648  5241
METEOR M1
1 35865U 09049A   26031.18790448  .00000144  00000-0  83332-4 0  9994
2 35865  98.7205 354.7834 0002301  14.0399 346.0843 14.23117198849765
METOP-B
1 38771U 12049A   26031.13776721  .00000155  00000-0  90693-4 0  9990
2 38771  98.6721  85.2418 0002747  43.1774 316.9618 14.21431062693797
METEOR M2
1 40069U 14037A   26031.16439275 -.00000061  00000-0 -87207-5 0  9991
2 40069  98.4958  11.8709 0006929  76.7765 283.4185 14.21410902599855
CSSWE
1 38761U 12048D   26030.82011998  .00036573  00000-0  92489-3 0  9998
2 38761  64.6608 196.2356 0077682 213.4817 146.1394 15.36488739 95236
MCUBED-2
1 39469U 13072H   26031.14349898  .00017652  00000-0  74785-3 0  9997
2 39469 120.4885 184.3334 0144970 224.1764 134.7650 15.14317464 97040
IPEX
1 39471U 13072K   26031.17021410  .00013035  00000-0  67541-3 0  9993
2 39471 120.4642 138.8809 0167328 210.3341 148.7951 15.05363707 94581
FOX-1A (AO-85)
1 40967U 15058D   26031.14523590  .00003089  00000-0  28678-3 0  9990
2 40967  64.7773 344.5760 0130729 110.7455 250.7723 14.90050247 93141
OOREOS
1 37224U 10062C   26031.08004206  .00003294  00000-0  32157-3 0  9998
2 37224  71.9709  30.7538 0016407 320.8720  39.1262 14.93027860 96175
STARS (KUKAI)
1 33498U 09002G   26031.09632564  .00005008  00000-0  46914-3 0  9995
2 33498  98.1417 333.0483 0007061 262.2283  97.8134 14.94513855917994
YUBELEINY-2 (RS-40)
1 38735U 12041C   26031.16210924  .00000013  00000-0  20089-4 0  9998
2 38735  82.4790 160.1332 0017083   9.3765 350.7631 12.42642989612824
AIST-1
1 39492U 13078C   26031.16323281  .00001157  00000-0  10169-3 0  9998
2 39492  82.4134  43.5752 0017637  22.9711 337.2295 14.95575888654762
VELOX-1
1 40057U 14034E   26031.18434524  .00009064  00000-0  80543-3 0  9993
2 40057  98.2674 288.4791 0008017  15.2329 344.9131 14.96350222626105
DX1
1 40071U 14037C   26031.14011660  .00002461  00000-0  26532-3 0  9992
2 40071  98.3694 344.7241 0007378   9.7977 350.3381 14.89425083625709
COSMOS-2491 (RS-46) [i]
1 39497U 13076E   26031.15879447  .00000047  00000-0  26471-3 0  9990
2 39497  82.4817 253.6867 0013548  32.2582 327.9324 12.43494485548229
COSMOS-2499 (RS-47) [i]
1 39765U 14028E   26031.17570854  .00000013  00000-0  13651-4 0  9998
2 39765  82.4533 344.8885 0231065 323.5814  34.9755 12.82900323547458
TRANSIT 5B-5
1   965U 64083D   26031.03028354  .00000066  00000-0  79564-4 0  9995
2   965  90.0685 201.9471 0040264 321.0610 156.8870 13.56997433 25016
EUTELSAT 1-F4 (ECS 4)
1 18351U 87078B   26031.06669971 -.00000153  00000-0  00000+0 0  9993
2 18351  13.9254 343.0830 0010629  19.4395 164.7262  0.98690250125403
BISONSAT
1 40968U 15058E   26031.10788562  .00004578  00000-0  38015-3 0  9999
2 40968  64.7775 327.7860 0119181 108.4334 252.9780 14.94616460 96168
DTUSAT-2
1 40030U 14033W   26031.23063560  .00009079  00000-0  52107-3 0  9998
2 40030  98.0795  20.5337 0007952 356.8607   3.2570 15.12772880631968
ELEKTRO-L2
1 41105U 15074A   26030.91856091 -.00000127  00000-0  00000+0 0  9998
2 41105   6.3466  72.2257 0003809 221.7675 152.3161  1.00271842 37131
DOVE-3
1 39429U 13066P   26031.13901976  .00003269  00000-0  43769-3 0  9993
2 39429  97.6810 257.9143 0116660 108.9071 252.4828 14.75408210650797
FORTE
1 24920U 97047A   26031.14555472  .00000272  00000-0  13305-3 0  9995
2 24920  69.9551 323.5435 0019050 108.0795 252.2405 14.27876143479120
DMSP 5D-2 F15/USA-147
1 25991U 99067A   26031.15449544  .00000229  00000-0  13557-3 0  9992
2 25991  99.0156  67.8810 0010469  37.8573  51.2421 14.17502783351238
CASSIOPE-1
1 39265U 13055A   26031.09230596  .00042388 -44046-6  53261-3 0  9995
2 39265  80.9151 232.0341 0327328 161.4148 199.9379 15.15476920646830
D-STAR ONE PHOENIX
1 43188U 18014J   26030.70508621  .00006890  00000-0  37100-3 0  9995
2 43188  97.5492 296.5869 0010425 123.6226 236.6002 15.15102332437939
S-NET D
1 43186U 18014G   26030.70558047  .00006931  00000-0  37327-3 0  9997
2 43186  97.5476 296.4208 0009843 126.6094 233.6045 15.15096554437935
TEN-KOH
1 43677U 18084G   26031.07673331  .00003272  00000-0  25339-3 0  9999
2 43677  98.0708 217.7046 0008957 216.7804 143.2806 15.02168899395577
STARS-AO
1 43679U 18084J   26031.06690337  .00007221  00000-0  38862-3 0  9998
2 43679  98.0624 236.6272 0001177 290.9908  69.1196 15.15178845396691
